# From MPC105239
C/2017 E4 (Lovejoy),h,04/23.5100/2017,88.1377,223.1349,87.0809,1.001503,0.491866,2000,17.0,4.0
# From MPC105239
C/2017 E5 (Lemmon),e,122.6591,206.2707,306.8675,384.2852,0.0001308,0.99534846,0.0000,06/10.5482/2016,2000,g 13.0,4.0
# From MPC111769
C/2017 F1 (Lemmon),h,11/30.6834/2017,146.4728,158.7763,64.7958,1.004402,4.497972,2000,10.5,4.0
# From MPC114598
C/2017 F2 (PANSTARRS),h,11/27.8366/2017,42.5083,38.6694,135.0455,1.004800,6.931201,2000,7.5,4.0
# From MPC104794
P/2017 G1 (PANSTARRS),e,4.7749,249.6286,224.5862,7.294844,0.0500242,0.65350395,66.3294,12/16.0/2019,2000,g 13.5,4.0
# From MPC108595
P/2017 G2 (PANSTARRS),e,47.9542,79.8004,105.6277,8.083741,0.0428830,0.64880439,39.3035,12/16.0/2019,2000,g 13.0,4.0
# From MPC109144
C/2017 G3 (PANSTARRS),e,159.0588,279.4802,73.1506,304.0998,0.0001859,0.99147757,0.0000,04/15.3520/2017,2000,g 14.0,4.0
# From MPC115882
C/2017 K1 (PANSTARRS),h,03/16.7148/2018,154.0079,225.6464,4.3470,1.001066,7.288323,2000,7.0,4.0
# From MPC118840
C/2017 K2 (PANSTARRS),h,12/20.1416/2022,87.5416,88.2700,236.1384,1.000393,1.801061,2000,1.5,4.0
# From MPC106346
P/2017 K3 (Gasparovic),e,4.2755,354.3056,253.4046,5.579084,0.0747928,0.58098878,69.4268,12/16.0/2019,2000,g 14.5,4.0
# From MPC114598
C/2017 K4 (ATLAS),e,16.6795,298.8735,15.1802,28.37748,0.0065199,0.90665083,4.6079,12/16.0/2019,2000,g 10.0,4.0
# From MPC118093
C/2017 K5 (PANSTARRS),h,03/23.5291/2020,82.2632,102.3736,171.7934,1.005738,7.678845,2000,5.0,4.0
# From MPC114599
C/2017 K6 (Jacques),e,57.2557,85.0551,303.7853,1064,0.0000284,0.99811991,0.0000,01/03.1666/2018,2000,g 11.0,4.0
# From MPC110083
C/2017 M3 (PANSTARRS),e,77.5228,7.0024,110.3640,168.3952,0.0004510,0.97233614,0.0000,04/28.2641/2017,2000,g 10.5,4.0
# From MPC118093
C/2017 M4 (ATLAS),h,01/17.8794/2019,105.6439,65.8636,167.5585,1.001252,3.251343,2000,6.0,4.0
# From MPC118841
C/2017 M5 (TOTAS),h,06/03.6079/2018,15.8830,216.2714,92.7094,1.004874,5.990888,2000,6.5,4.0
# From MPC114599
C/2017 O1 (ASASSN),e,39.8664,25.7880,20.8675,362.8734,0.0001426,0.99587435,0.0000,10/14.7095/2017,2000,g 11.0,4.0
# From MPC114599
P/2017 P1 (PANSTARRS),e,7.6998,221.4005,122.1576,7.884963,0.0445148,0.31009137,24.3275,12/16.0/2019,2000,g 10.0,4.0
# From MPC114599
C/2017 P2 (PANSTARRS),e,50.0650,165.5202,132.2939,1799,0.0000129,0.99863065,0.0000,12/06.6698/2017,2000,g 10.0,4.0
# From MPC114599
P/2017 R1 (PANSTARRS),e,2.5734,143.6269,178.4934,4.134848,0.1172235,0.19547694,114.9848,12/16.0/2019,2000,g 13.5,4.0
# From MPC108595
C/2017 S2 (PANSTARRS),e,12.6815,62.4213,305.9341,20.49263,0.0106245,0.82372183,8.9102,12/16.0/2019,2000,g 13.0,4.0
# From MPC114599
C/2017 S3 (PANSTARRS),h,08/15.9570/2018,99.0748,171.0895,255.8382,1.000048,0.208457,2000,11.0,4.0
# From MPC114599
P/2017 S5 (ATLAS),e,11.8503,252.3891,99.8353,3.169456,0.1746735,0.31363885,152.1243,12/16.0/2019,2000,g 14.0,4.0
# From MPC109591
C/2017 S6 (Catalina),h,02/26.7780/2018,152.8679,131.0517,134.7968,1.000826,1.541626,2000,12.5,4.0
# From MPC114599
C/2017 S7 (Lemmon),h,05/26.3545/2017,124.2338,262.7944,187.6516,1.001623,7.610626,2000,7.0,4.0
# From MPC114599
P/2017 S8 (PANSTARRS),e,29.8323,191.7619,254.6787,2.777752,0.2128942,0.39295190,146.1668,12/16.0/2019,2000,g 16.0,4.0
# From MPC107050
P/2017 S9 (PANSTARRS),e,14.1429,146.2153,237.7522,3.154456,0.1759209,0.30480222,154.0622,12/16.0/2019,2000,g 17.0,4.0
# From MPC114600
C/2017 T1 (Heinze),h,02/21.5551/2018,96.8372,102.3178,96.8984,1.000040,0.580881,2000,14.5,4.0
# From MPC118841
C/2017 T2 (PANSTARRS),e,57.2315,64.3787,92.9938,5053,0.0000027,0.99968039,0.0000,05/04.9495/2020,2000,g  5.0,4.0
# From MPC114600
C/2017 T3 (ATLAS),e,88.0301,230.0672,246.8382,1627,0.0000150,0.99949313,0.0000,07/19.1235/2018,2000,g 10.0,4.0
# From MPC115882
P/2017 TW13 (Lemmon),e,44.8450,322.2814,120.0731,7.152328,0.0515268,0.70942680,27.9848,12/16.0/2019,2000,g 15.0,2.0
# From MPC114600
C/2017 U2 (Fuls),e,95.3975,149.7140,147.7553,5582,0.0000024,0.99879943,0.0000,08/28.2839/2017,2000,g  9.0,4.0
# From MPC114600
P/2017 U3 (PANSTARRS),e,15.9108,165.1131,297.2364,4.933030,0.0899567,0.09906549,21.6161,12/16.0/2019,2000,g 11.0,4.0
# From MPC114600
C/2017 U4 (PANSTARRS),h,09/24.5183/2018,158.2240,245.9509,159.1007,1.003704,7.723332,2000,7.0,4.0
# From MPC114600
C/2017 U5 (PANSTARRS),e,18.9641,163.0896,262.0890,16.88496,0.0142054,0.74388112,10.3337,12/16.0/2019,2000,g 12.0,4.0
# From MPC118841
A/2017 U7,h,09/11.6134/2019,142.6353,276.2324,326.0601,1.001345,6.417368,2000,8.3,2.0
# From MPC114600
C/2017 W2 (Leonard),e,98.1978,312.8298,169.1290,13.69299,0.0194516,0.71107802,15.0603,12/16.0/2019,2000,g 11.0,4.0
# From MPC114601
P/2017 W3 (Gibbs),e,18.2134,210.5474,327.2637,7.834343,0.0449470,0.50883346,29.4415,12/16.0/2019,2000,g 10.5,4.0
# From MPC115883
C/2017 X1 (PANSTARRS),e,31.3081,251.1283,283.2426,31.48922,0.0055778,0.85183233,3.0599,12/16.0/2019,2000,g 10.0,4.0
# From MPC117069
C/2017 Y1 (PANSTARRS),e,55.2611,307.5222,134.3873,2134,0.0000100,0.99825858,0.0000,08/31.2099/2017,2000,g 11.5,4.0
# From MPC118841
C/2017 Y2 (PANSTARRS),h,11/04.4541/2020,128.4307,65.9707,147.8284,1.000193,4.632566,2000,15.0,4.0
# From MPC111770
P/2017 Y3 (Leonard),e,27.5743,153.8650,67.5609,9.853192,0.0318668,0.87043382,21.4421,12/16.0/2019,2000,g 16.5,4.0
# From MPC114601
C/2018 A1 (PANSTARRS),e,53.5835,336.6295,96.3396,25.14644,0.0078161,0.90383435,6.1490,12/16.0/2019,2000,g 12.5,4.0
# From MPC118841
C/2018 A3 (ATLAS),e,139.5575,194.2896,86.4210,508.1457,0.0000860,0.99355217,0.0000,01/12.8134/2019,2000,g  8.5,4.0
# From MPC114601
C/2018 A4 (PANSTARRS),e,3.1482,97.6349,356.1028,12.23282,0.0230364,0.80362170,13.2770,12/16.0/2019,2000,g 14.0,4.0
# From MPC109147
P/2018 A5 (PANSTARRS),e,23.5778,87.8312,359.6425,5.640235,0.0735798,0.52233435,59.8607,12/16.0/2019,2000,g 15.0,4.0
# From MPC118841
C/2018 A6 (Gibbs),e,76.9549,340.3862,264.5364,15.35303,0.0163837,0.80343686,2.5346,12/16.0/2019,2000,g  9.0,4.0
# From MPC118841
C/2018 B1 (Lemmon),h,03/30.0396/2018,162.4215,133.1862,68.3245,1.002153,5.115585,2000,9.0,4.0
# From MPC114601
P/2018 C1 (Lemmon-Read),e,5.1412,270.3843,235.1191,5.630737,0.0737660,0.53615079,48.4208,12/16.0/2019,2000,g 13.5,4.0
# From MPC114601
C/2018 C2 (Lemmon),h,06/02.0690/2018,34.4583,91.1389,134.1105,1.001140,1.956509,2000,13.0,4.0
# From MPC118841
C/2018 DO4 (Lemmon),e,160.4743,251.1324,175.9670,25.83060,0.0075076,0.90685739,0.8980,12/16.0/2019,2000,g 11.0,4.0
# From MPC114602
C/2018 E1 (ATLAS),e,72.4985,146.8461,299.4534,54.12842,0.0024749,0.95002838,1.5041,12/16.0/2019,2000,g 10.5,4.0
# From MPC114602
C/2018 E2 (Barros),e,97.7371,67.2011,277.4848,3242,0.0000053,0.99879035,0.0000,12/23.8738/2017,2000,g 10.5,4.0
# From MPC114602
C/2018 EN4 (NEOWISE),e,81.5763,136.1580,35.0125,18.34481,0.0125439,0.92104241,6.9788,12/16.0/2019,2000,g 15.0,4.0
# From MPC114602
C/2018 EF9 (Lemmon),e,84.6727,172.5780,72.6215,610.7539,0.0000653,0.99745085,0.0000,05/23.0849/2018,2000,g 18.0,2.0
# From MPC115883
C/2018 F1 (Grauer),e,46.0737,177.2777,71.6381,307.2867,0.0001830,0.99025891,0.0000,12/14.0554/2018,2000,g 11.5,4.0
# From MPC110084
C/2018 F3 (Johnson),p,08/15.2314/2017,105.5348,293.0113,2.483172,173.0311,2000,13.0,4.0
# From MPC118841
C/2018 F4 (PANSTARRS),h,12/04.0959/2019,78.0983,26.5074,263.2127,1.001475,3.439816,2000,11.9,2.0
# From MPC114602
P/2018 H2 (PANSTARRS),e,7.3884,68.4435,120.0573,4.398324,0.1068497,0.53984747,73.9345,12/16.0/2019,2000,g 16.6,2.0
# From MPC114602
C/2018 K1 (Weiland),e,164.1960,260.0119,324.9861,29.82807,0.0060502,0.93700041,3.7404,12/16.0/2019,2000,g 14.9,4.0
# From MPC118094
C/2018 KJ3 (Lemmon),e,136.7092,91.5943,217.6259,750.4868,0.0000479,0.99516494,0.0000,09/09.5042/2019,2000,g 12.2,2.0
# From MPC114602
P/2018 L1 (PANSTARRS),e,10.5948,268.6264,17.9233,3.648705,0.1414152,0.48305426,56.3426,12/16.0/2019,2000,g 15.0,4.0
# From MPC118841
C/2018 L2 (ATLAS),e,67.4192,243.0208,56.2475,250.1835,0.0002491,0.99315705,0.0000,12/02.6169/2018,2000,g 10.0,4.0
# From MPC114603
P/2018 L4 (PANSTARRS),e,26.6233,145.1782,140.4861,4.937003,0.0898481,0.66033066,45.1132,12/16.0/2019,2000,g 17.5,4.0
# From MPC114603
P/2018 L5 (Leonard),e,2.2088,219.1566,93.7022,3.626912,0.1426916,0.36482104,84.2267,12/16.0/2019,2000,g 14.5,4.0
# From MPC117070
C/2018 M1 (Catalina),e,37.2675,339.4407,14.1411,21.29277,0.0100313,0.93880520,5.2557,12/16.0/2019,2000,g 15.5,4.0
# From MPC112393
C/2018 N1 (NEOWISE),e,159.4446,292.4452,354.5681,330.9322,0.0001637,0.99604831,0.0000,08/01.9325/2018,2000,g 15.5,4.0
# From MPC118841
C/2018 N2 (ASASSN),h,11/10.9623/2019,77.5312,25.2588,24.3963,1.000165,3.124639,2000,6.0,4.0
# From MPC114603
C/2018 O1 (ATLAS),e,154.0428,87.6234,162.5091,27.76937,0.0067353,0.94387554,3.1755,12/16.0/2019,2000,g 17.0,4.0
# From MPC114603
P/2018 P3 (PANSTARRS),e,8.9084,59.2053,305.8716,3.007061,0.1890126,0.41606002,81.7515,12/16.0/2019,2000,g 14.5,4.0
# From MPC114603
P/2018 P4 (PANSTARRS),e,23.1072,353.0985,8.1413,6.664896,0.0572814,0.44992785,23.1144,12/16.0/2019,2000,g 12.0,4.0
# From MPC118094
C/2018 P5 (PANSTARRS),e,7.2559,216.2451,131.6567,12.76571,0.0216091,0.64153461,6.3218,12/16.0/2019,2000,g 11.0,4.0
# From MPC118841
C/2018 R3 (Lemmon),e,69.7180,324.6256,112.8736,1952,0.0000114,0.99933897,0.0000,06/07.1964/2019,2000,g  9.5,4.0
# From MPC112393
C/2018 R4 (Fuls),e,11.6833,298.4420,345.2062,313.7372,0.0001774,0.99454751,0.0000,03/03.6769/2018,2000,g 14.0,4.0
# From MPC114603
C/2018 R5 (Lemmon),e,103.7503,171.1395,178.0254,22.82236,0.0090399,0.84131677,3.0733,12/16.0/2019,2000,g 11.5,4.0
# From MPC118842
C/2018 U1 (Lemmon),h,11/02.7546/2021,108.3017,75.4770,180.3989,1.000357,4.995129,2000,5.0,4.0
# From MPC114604
C/2018 V1 (Machholz-Fujikawa-Iwamoto),h,12/03.5310/2018,144.0454,128.8553,88.8427,1.000496,0.386186,2000,12.0,4.0
# From MPC115884
C/2018 V2 (ATLAS),e,159.1118,356.7965,318.6833,25.44584,0.0076785,0.90271749,2.9487,12/16.0/2019,2000,g 15.0,4.0
# From MPC114604
P/2018 VN2 (Leonard),e,18.2471,226.5456,138.7287,4.065321,0.1202435,0.47807093,67.1771,12/16.0/2019,2000,g 15.0,4.0
